NORAD_CAT_ID,OBJECT_NAME,OBJECT_TYPE,EPOCH,MEAN_MOTION,ECCENTRICITY,INCLINATION,RA_OF_ASC_NODE,ARG_OF_PERICENTER,MEAN_ANOMALY,BSTAR,MEAN_MOTION_DOT,MEAN_MOTION_DDOT,TLE_LINE0,TLE_LINE1,TLE_LINE2,SEMIMAJOR_AXIS,PERIOD,APOGEE,PERIGEE,DECAYED
50190.0,STARLINK-3268,PAYLOAD,2024-03-21 14:16:50,15.08843343,0.0001527,53.215,222.7738,48.6996,311.4127,9.7668e-05,1.267e-05,0.0,0 STARLINK-3268,1 50190U 21125AL  24081.59503255  .00001267  00000-0  97668-4 0  9991,2 50190  53.2150 222.7738 0001527  48.6996 311.4127 15.08843343128325,6917.87,95.437,540.792,538.679,0.0
50190.0,STARLINK-3268,PAYLOAD,2024-03-22 14:07:37,15.08848385,0.0001243,53.2152,218.3111,71.1581,288.9546,0.00027648,4.116e-05,0.0,0 STARLINK-3268,1 50190U 21125AL  24082.58862833  .00004116  00000-0  27648-3 0  9997,2 50190  53.2152 218.3111 0001243  71.1581 288.9546 15.08848385128479,6917.855,95.437,540.58,538.86,0.0
50190.0,STARLINK-3268,PAYLOAD,2024-03-22 15:43:00,15.08851706,0.0001309,53.2154,218.0139,66.5905,293.5225,0.00032562,4.9e-05,0.0,0 STARLINK-3268,1 50190U 21125AL  24082.65486700  .00004900  00000-0  32562-3 0  9992,2 50190  53.2154 218.0139 0001309  66.5905 293.5225 15.08851706128005,6917.845,95.437,540.615,538.804,0.0
50190.0,STARLINK-3268,PAYLOAD,2024-03-23 12:23:01,15.08838691,0.0001135,53.2148,214.1484,79.3012,280.8108,2.0593e-06,-2.55e-06,0.0,0 STARLINK-3268,1 50190U 21125AL  24083.51599509 -.00000255  00000-0  20593-5 0  9993,2 50190  53.2148 214.1484 0001135  79.3012 280.8108 15.08838691128137,6917.884,95.438,540.535,538.964,0.0
50190.0,STARLINK-3268,PAYLOAD,2024-03-23 15:33:47,15.08845156,0.0001251,53.2158,213.5519,91.2727,268.8408,7.1068e-05,8.44e-06,0.0,0 STARLINK-3268,1 50190U 21125AL  24083.64847114  .00000844  00000-0  71068-4 0  9990,2 50190  53.2158 213.5519 0001251  91.2727 268.8408 15.08845156128633,6917.865,95.437,540.595,538.864,0.0
50190.0,STARLINK-3268,PAYLOAD,2024-03-24 13:49:11,15.08853922,0.0001782,53.2173,209.3888,57.3044,302.812,0.00046368,7.102e-05,0.0,0 STARLINK-3268,1 50190U 21125AL  24084.57582872  .00007102  00000-0  46368-3 0  9998,2 50190  53.2173 209.3888 0001782  57.3044 302.8120 15.08853922128771,6917.838,95.437,540.936,538.47,0.0
50190.0,STARLINK-3268,PAYLOAD,2024-03-24 15:24:34,15.08865889,0.0001483,53.2184,209.0918,89.3785,270.7377,0.00073081,0.0001137,0.0,0 STARLINK-3268,1 50190U 21125AL  24084.64206466  .00011370  00000-0  73081-3 0  9992,2 50190  53.2184 209.0918 0001483  89.3785 270.7377 15.08865889128300,6917.801,95.436,540.692,538.64,0.0
50190.0,STARLINK-3268,PAYLOAD,2024-03-25 13:39:58,15.08843968,0.0001924,53.2179,204.9321,84.9721,275.1491,-3.3959e-05,-8.29e-06,0.0,0 STARLINK-3268,1 50190U 21125AL  24085.56942571 -.00000829  00000-0 -33959-4 0  9998,2 50190  53.2179 204.9321 0001924  84.9721 275.1491 15.08843968128442,6917.868,95.437,541.064,538.402,0.0
50190.0,STARLINK-3268,PAYLOAD,2024-03-25 16:50:44,15.08854704,0.000212,53.2189,204.3391,97.0667,263.0566,0.00028988,4.33e-05,0.0,0 STARLINK-3268,1 50190U 21125AL  24085.70190354  .00004330  00000-0  28988-3 0  9992,2 50190  53.2189 204.3391 0002120  97.0667 263.0566 15.08854704128941,6917.835,95.437,541.167,538.234,0.0
50190.0,STARLINK-3268,PAYLOAD,2024-03-26 13:30:47,15.08804645,0.0001897,53.2172,200.47,109.1735,250.9462,-6.9329e-05,-1.39e-05,0.0,0 STARLINK-3268,1 50190U 21125AL  24086.56304842 -.00001390  00000-0 -69329-4 0  9996,2 50190  53.2172 200.4700 0001897 109.1735 250.9462 15.08804645128595,6917.988,95.44,541.166,538.541,0.0
50190.0,STARLINK-3268,PAYLOAD,2024-03-26 15:06:10,15.08805734,0.0001729,53.2168,200.173,93.3702,266.7488,0.00012047,1.628e-05,0.0,0 STARLINK-3268,1 50190U 21125AL  24086.62929120  .00001628  00000-0  12047-3 0  9991,2 50190  53.2168 200.1730 0001729  93.3702 266.7488 15.08805734129080,6917.985,95.44,541.046,538.654,0.0
50190.0,STARLINK-3268,PAYLOAD,2024-03-27 00:38:30,15.0882075,0.0001682,53.2166,198.3873,101.7207,258.3974,0.0009438,0.00014757,0.0,0 STARLINK-3268,1 50190U 21125AL  24087.02673662  .00014757  00000-0  94380-3 0  9990,2 50190  53.2166 198.3873 0001682 101.7207 258.3974 15.08820750128661,6917.939,95.439,540.968,538.641,0.0
50190.0,STARLINK-3268,PAYLOAD,2024-03-27 13:21:34,15.08858443,0.0001481,53.2161,196.0096,98.7759,261.3401,0.001487,0.00023469,0.0,0 STARLINK-3268,1 50190U 21125AL  24087.55665194  .00023469  00000-0  14870-2 0  9994,2 50190  53.2161 196.0096 0001481  98.7759 261.3401 15.08858443128740,6917.824,95.436,540.714,538.664,0.0
50190.0,STARLINK-3268,PAYLOAD,2024-03-27 16:32:20,15.08874194,0.0001615,53.2153,195.4145,95.6763,264.4413,0.0016753,0.000265,0.0,0 STARLINK-3268,1 50190U 21125AL  24087.68912818  .00026500  00000-0  16753-2 0  9997,2 50190  53.2153 195.4145 0001615  95.6763 264.4413 15.08874194129243,6917.776,95.435,540.758,538.524,0.0
50190.0,STARLINK-3268,PAYLOAD,2024-03-28 00:29:16,15.08864037,0.0001989,53.2166,193.9272,90.7639,269.3581,0.00098523,0.00015437,0.0,0 STARLINK-3268,1 50190U 21125AL  24088.02032777  .00015437  00000-0  98523-3 0  9996,2 50190  53.2166 193.9272 0001989  90.7639 269.3581 15.08864037128810,6917.807,95.436,541.048,538.296,0.0
50190.0,STARLINK-3268,PAYLOAD,2024-03-28 11:36:57,15.08858072,0.0001684,53.2159,191.8481,86.056,274.0624,0.0007978,0.00012438,0.0,0 STARLINK-3268,1 50190U 21125AL  24088.48400353  .00012438  00000-0  79780-3 0  9997,2 50190  53.2159 191.8481 0001684  86.0560 274.0624 15.08858072128884,6917.825,95.436,540.855,538.525,0.0
50190.0,STARLINK-3268,PAYLOAD,2024-03-29 13:03:07,15.08863606,0.0001211,53.2161,187.0879,92.6054,267.5076,0.0011476,0.00018035,0.0,0 STARLINK-3268,1 50190U 21125AL  24089.54383702  .00018035  00000-0  11476-2 0  9999,2 50190  53.2161 187.0879 0001211  92.6054 267.5076 15.08863606129048,6917.808,95.436,540.511,538.835,0.0
50190.0,STARLINK-3268,PAYLOAD,2024-03-30 12:53:54,15.08853232,0.0001382,53.2168,182.6307,78.7757,281.3391,0.00023927,3.523e-05,0.0,0 STARLINK-3268,1 50190U 21125AL  24090.53743363  .00003523  00000-0  23927-3 0  9994,2 50190  53.2168 182.6307 0001382  78.7757 281.3391 15.08853232129190,6917.84,95.437,540.661,538.749,0.0
50190.0,STARLINK-3268,PAYLOAD,2024-03-31 12:44:41,15.08840573,0.0001418,53.217,178.1699,88.4398,271.6757,-2.851e-06,-3.33e-06,0.0,0 STARLINK-3268,1 50190U 21125AL  24091.53103667 -.00000333  00000-0 -28510-5 0  9995,2 50190  53.2170 178.1699 0001418  88.4398 271.6757 15.08840573129345,6917.879,95.438,540.725,538.763,0.0
50190.0,STARLINK-3268,PAYLOAD,2024-03-31 22:17:00,15.08832871,0.0001261,53.2158,176.3843,82.4738,277.6397,-0.00012582,-2.289e-05,0.0,0 STARLINK-3268,1 50190U 21125AL  24091.92848035 -.00002289  00000-0 -12582-3 0  9995,2 50190  53.2158 176.3843 0001261  82.4738 277.6397 15.08832871129887,6917.902,95.438,540.64,538.895,0.0
50190.0,STARLINK-3268,PAYLOAD,2024-04-01 12:35:29,15.08833863,0.0001428,53.2185,173.7121,97.0975,263.0179,-3.7745e-06,-3.48e-06,0.0,0 STARLINK-3268,1 50190U 21125AL  24092.52464799 -.00000348  00000-0 -37745-5 0  9997,2 50190  53.2185 173.7121 0001428  97.0975 263.0179 15.08833863129976,6917.899,95.438,540.752,538.776,0.0
50190.0,STARLINK-3268,PAYLOAD,2024-04-02 04:29:20,15.08839767,0.000144,53.2173,170.7375,99.2342,260.8813,0.00020457,2.969e-05,0.0,0 STARLINK-3268,1 50190U 21125AL  24093.18704426  .00002969  00000-0  20457-3 0  9993,2 50190  53.2173 170.7375 0001440  99.2342 260.8813 15.08839767129594,6917.881,95.438,540.742,538.75,0.0
50190.0,STARLINK-3268,PAYLOAD,2024-04-02 12:26:16,15.08845882,0.0001428,53.2173,169.2507,95.3295,264.786,0.00028393,4.234e-05,0.0,0 STARLINK-3268,1 50190U 21125AL  24093.51824257  .00004234  00000-0  28393-3 0  9999,2 50190  53.2173 169.2507 0001428  95.3295 264.7860 15.08845882130125,6917.862,95.437,540.715,538.74,0.0
50190.0,STARLINK-3268,PAYLOAD,2024-04-02 21:58:35,15.08843276,0.0001375,53.2159,167.4654,92.466,267.649,0.0002143,3.125e-05,0.0,0 STARLINK-3268,1 50190U 21125AL  24093.91568429  .00003125  00000-0  21430-3 0  9992,2 50190  53.2159 167.4654 0001375  92.4660 267.6490 15.08843276130189,6917.87,95.437,540.687,538.784,0.0
50190.0,STARLINK-3268,PAYLOAD,2024-04-03 10:41:40,15.08834957,0.0001345,53.2159,165.086,92.9939,267.1207,-9.8496e-06,-4.45e-06,0.0,0 STARLINK-3268,1 50190U 21125AL  24094.44560817 -.00000445  00000-0 -98496-5 0  9996,2 50190  53.2159 165.0860 0001345  92.9939 267.1207 15.08834957129784,6917.896,95.438,540.691,538.83,0.0
50190.0,STARLINK-3268,PAYLOAD,2024-04-03 13:52:26,15.08834405,0.0001344,53.2158,164.4913,92.7361,267.3785,-2.37e-05,-6.65e-06,0.0,0 STARLINK-3268,1 50190U 21125AL  24094.57808878 -.00000665  00000-0 -23700-4 0  9991,2 50190  53.2158 164.4913 0001344  92.7361 267.3785 15.08834405130289,6917.897,95.438,540.692,538.833,0.0
50190.0,STARLINK-3268,PAYLOAD,2024-04-03 21:49:22,15.08837068,0.0001339,53.2155,163.0037,90.1775,269.937,3.35e-05,2.45e-06,0.0,0 STARLINK-3268,1 50190U 21125AL  24094.90928994  .00000245  00000-0  33500-4 0  9991,2 50190  53.2155 163.0037 0001339  90.1775 269.9370 15.08837068130335,6917.889,95.438,540.681,538.828,0.0
50190.0,STARLINK-3268,PAYLOAD,2024-04-04 12:07:50,15.08847695,0.0001323,53.2166,160.3267,91.3763,268.738,7.2223e-05,8.62e-06,0.0,0 STARLINK-3268,1 50190U 21125AL  24095.50544474  .00000862  00000-0  72223-4 0  9995,2 50190  53.2166 160.3267 0001323  91.3763 268.7380 15.08847695129945,6917.857,95.437,540.637,538.807,0.0
50190.0,STARLINK-3268,PAYLOAD,2024-04-04 21:40:09,15.08846923,0.0001312,53.2169,158.5427,90.9244,269.1898,9.8045e-05,1.273e-05,0.0,0 STARLINK-3268,1 50190U 21125AL  24095.90288314  .00001273  00000-0  98045-4 0  9994,2 50190  53.2169 158.5427 0001312  90.9244 269.1898 15.08846923130485,6917.859,95.437,540.632,538.817,0.0
50190.0,STARLINK-3268,PAYLOAD,2024-04-05 10:23:14,15.08846386,0.0001299,53.2162,156.1642,90.1088,270.0053,0.00019558,2.827e-05,0.0,0 STARLINK-3268,1 50190U 21125AL  24096.43280141  .00002827  00000-0  19558-3 0  9990,2 50190  53.2162 156.1642 0001299  90.1088 270.0053 15.08846386130569,6917.861,95.437,540.624,538.827,0.0
